<?xml version="1.0" encoding="UTF-8"?>
<gpx creator="Wikiloc - https://www.wikiloc.com" version="1.1" xmlns="http://www.topografix.com/GPX/1/1" xmlns:xsi="http://www.w3.org/2001/XMLSchema-instance" xsi:schemaLocation="http://www.topografix.com/GPX/1/1 http://www.topografix.com/GPX/1/1/gpx.xsd">
  <metadata>
    <name>Wikiloc - Трек BeitJan Hamama 12-13 05 16</name>
    <link href="https://www.wikiloc.com/hiking-trails/trek-beitjan-hamama-12-13-05-16-19041685">
      <text>Трек BeitJan Hamama 12-13 05 16 - Wikiloc on Wikiloc</text>
    </link>
    <time>2016-05-13T11:31:00Z</time>
  </metadata>
  <trk>
    <name>Трек BeitJan Hamama 12-13 05 16 - Wikiloc</name>
    <cmt></cmt>
    <desc></desc>
    <trkseg>
      <trkpt lat="32.963557" lon="35.382466">
        <ele>925.994</ele>
        <time>2016-05-12T05:12:01Z</time>
      </trkpt>
      <trkpt lat="32.964072" lon="35.382510">
        <ele>925.957</ele>
        <time>2016-05-12T05:13:11Z</time>
      </trkpt>
      <trkpt lat="32.964263" lon="35.382273">
        <ele>930.222</ele>
        <time>2016-05-12T05:13:36Z</time>
      </trkpt>
      <trkpt lat="32.964659" lon="35.382200">
        <ele>934.108</ele>
        <time>2016-05-12T05:14:08Z</time>
      </trkpt>
      <trkpt lat="32.965060" lon="35.382479">
        <ele>929.760</ele>
        <time>2016-05-12T05:14:44Z</time>
      </trkpt>
      <trkpt lat="32.965699" lon="35.382622">
        <ele>924.048</ele>
        <time>2016-05-12T05:15:28Z</time>
      </trkpt>
      <trkpt lat="32.967158" lon="35.383719">
        <ele>911.549</ele>
        <time>2016-05-12T05:17:37Z</time>
      </trkpt>
      <trkpt lat="32.968086" lon="35.384158">
        <ele>897.123</ele>
        <time>2016-05-12T05:18:59Z</time>
      </trkpt>
      <trkpt lat="32.967491" lon="35.384387">
        <ele>887.020</ele>
        <time>2016-05-12T05:19:51Z</time>
      </trkpt>
      <trkpt lat="32.966831" lon="35.384871">
        <ele>874.085</ele>
        <time>2016-05-12T05:21:06Z</time>
      </trkpt>
      <trkpt lat="32.965597" lon="35.384873">
        <ele>853.867</ele>
        <time>2016-05-12T05:22:51Z</time>
      </trkpt>
      <trkpt lat="32.965132" lon="35.384473">
        <ele>844.234</ele>
        <time>2016-05-12T05:23:43Z</time>
      </trkpt>
      <trkpt lat="32.964769" lon="35.384658">
        <ele>837.927</ele>
        <time>2016-05-12T05:24:21Z</time>
      </trkpt>
      <trkpt lat="32.966695" lon="35.385765">
        <ele>818.268</ele>
        <time>2016-05-12T05:27:26Z</time>
      </trkpt>
      <trkpt lat="32.966497" lon="35.385744">
        <ele>814.914</ele>
        <time>2016-05-12T05:27:48Z</time>
      </trkpt>
      <trkpt lat="32.967005" lon="35.386293">
        <ele>799.008</ele>
        <time>2016-05-12T05:29:13Z</time>
      </trkpt>
      <trkpt lat="32.967042" lon="35.386746">
        <ele>794.213</ele>
        <time>2016-05-12T05:30:33Z</time>
      </trkpt>
      <trkpt lat="32.967901" lon="35.387465">
        <ele>801.981</ele>
        <time>2016-05-12T05:32:03Z</time>
      </trkpt>
      <trkpt lat="32.969439" lon="35.389573">
        <ele>822.642</ele>
        <time>2016-05-12T05:35:45Z</time>
      </trkpt>
      <trkpt lat="32.969961" lon="35.389621">
        <ele>827.856</ele>
        <time>2016-05-12T05:37:09Z</time>
      </trkpt>
      <trkpt lat="32.970264" lon="35.390011">
        <ele>836.053</ele>
        <time>2016-05-12T05:37:53Z</time>
      </trkpt>
      <trkpt lat="32.970247" lon="35.390543">
        <ele>844.788</ele>
        <time>2016-05-12T05:38:43Z</time>
      </trkpt>
      <trkpt lat="32.970558" lon="35.390860">
        <ele>849.530</ele>
        <time>2016-05-12T05:39:21Z</time>
      </trkpt>
      <trkpt lat="32.970635" lon="35.391211">
        <ele>852.817</ele>
        <time>2016-05-12T05:39:54Z</time>
      </trkpt>
      <trkpt lat="32.970326" lon="35.392198">
        <ele>857.263</ele>
        <time>2016-05-12T05:41:58Z</time>
      </trkpt>
      <trkpt lat="32.970336" lon="35.392605">
        <ele>857.644</ele>
        <time>2016-05-12T05:42:28Z</time>
      </trkpt>
      <trkpt lat="32.969102" lon="35.393921">
        <ele>864.818</ele>
        <time>2016-05-12T05:45:15Z</time>
      </trkpt>
      <trkpt lat="32.968341" lon="35.394317">
        <ele>870.108</ele>
        <time>2016-05-12T05:46:54Z</time>
      </trkpt>
      <trkpt lat="32.968076" lon="35.394612">
        <ele>873.587</ele>
        <time>2016-05-12T05:47:26Z</time>
      </trkpt>
      <trkpt lat="32.967572" lon="35.394538">
        <ele>879.355</ele>
        <time>2016-05-12T05:48:14Z</time>
      </trkpt>
      <trkpt lat="32.967519" lon="35.394711">
        <ele>882.686</ele>
        <time>2016-05-12T05:48:59Z</time>
      </trkpt>
      <trkpt lat="32.967725" lon="35.394855">
        <ele>885.520</ele>
        <time>2016-05-12T05:51:09Z</time>
      </trkpt>
      <trkpt lat="32.967701" lon="35.395007">
        <ele>886.067</ele>
        <time>2016-05-12T05:52:07Z</time>
      </trkpt>
      <trkpt lat="32.967274" lon="35.394914">
        <ele>888.932</ele>
        <time>2016-05-12T05:52:43Z</time>
      </trkpt>
      <trkpt lat="32.967084" lon="35.394716">
        <ele>892.274</ele>
        <time>2016-05-12T05:53:09Z</time>
      </trkpt>
      <trkpt lat="32.967088" lon="35.395439">
        <ele>902.871</ele>
        <time>2016-05-12T05:54:09Z</time>
      </trkpt>
      <trkpt lat="32.966505" lon="35.396088">
        <ele>914.868</ele>
        <time>2016-05-12T05:55:36Z</time>
      </trkpt>
      <trkpt lat="32.966160" lon="35.396393">
        <ele>919.642</ele>
        <time>2016-05-12T06:01:31Z</time>
      </trkpt>
      <trkpt lat="32.964998" lon="35.396943">
        <ele>919.226</ele>
        <time>2016-05-12T06:07:54Z</time>
      </trkpt>
      <trkpt lat="32.964178" lon="35.397651">
        <ele>926.408</ele>
        <time>2016-05-12T06:09:41Z</time>
      </trkpt>
      <trkpt lat="32.963701" lon="35.398750">
        <ele>933.677</ele>
        <time>2016-05-12T06:11:07Z</time>
      </trkpt>
      <trkpt lat="32.963045" lon="35.399527">
        <ele>937.425</ele>
        <time>2016-05-12T06:13:08Z</time>
      </trkpt>
      <trkpt lat="32.963138" lon="35.400038">
        <ele>940.826</ele>
        <time>2016-05-12T06:13:46Z</time>
      </trkpt>
      <trkpt lat="32.961918" lon="35.402057">
        <ele>955.780</ele>
        <time>2016-05-12T06:16:42Z</time>
      </trkpt>
      <trkpt lat="32.961999" lon="35.403757">
        <ele>962.947</ele>
        <time>2016-05-12T06:20:39Z</time>
      </trkpt>
      <trkpt lat="32.961116" lon="35.405210">
        <ele>959.542</ele>
        <time>2016-05-12T06:22:47Z</time>
      </trkpt>
      <trkpt lat="32.960922" lon="35.405872">
        <ele>959.184</ele>
        <time>2016-05-12T06:23:38Z</time>
      </trkpt>
      <trkpt lat="32.961057" lon="35.406224">
        <ele>960.511</ele>
        <time>2016-05-12T06:24:10Z</time>
      </trkpt>
      <trkpt lat="32.960980" lon="35.406480">
        <ele>962.422</ele>
        <time>2016-05-12T06:24:49Z</time>
      </trkpt>
      <trkpt lat="32.960002" lon="35.408089">
        <ele>959.162</ele>
        <time>2016-05-12T06:27:17Z</time>
      </trkpt>
      <trkpt lat="32.959762" lon="35.409187">
        <ele>963.408</ele>
        <time>2016-05-12T06:29:35Z</time>
      </trkpt>
      <trkpt lat="32.959445" lon="35.409176">
        <ele>961.508</ele>
        <time>2016-05-12T06:30:35Z</time>
      </trkpt>
      <trkpt lat="32.958767" lon="35.408673">
        <ele>958.143</ele>
        <time>2016-05-12T06:31:40Z</time>
      </trkpt>
      <trkpt lat="32.958586" lon="35.408468">
        <ele>958.141</ele>
        <time>2016-05-12T06:32:00Z</time>
      </trkpt>
      <trkpt lat="32.958574" lon="35.408179">
        <ele>958.182</ele>
        <time>2016-05-12T06:32:19Z</time>
      </trkpt>
      <trkpt lat="32.957878" lon="35.407476">
        <ele>949.936</ele>
        <time>2016-05-12T06:33:33Z</time>
      </trkpt>
      <trkpt lat="32.957658" lon="35.408593">
        <ele>949.473</ele>
        <time>2016-05-12T06:34:52Z</time>
      </trkpt>
      <trkpt lat="32.957808" lon="35.409120">
        <ele>951.468</ele>
        <time>2016-05-12T06:35:33Z</time>
      </trkpt>
      <trkpt lat="32.958306" lon="35.409462">
        <ele>946.620</ele>
        <time>2016-05-12T06:36:21Z</time>
      </trkpt>
      <trkpt lat="32.958263" lon="35.409986">
        <ele>944.287</ele>
        <time>2016-05-12T06:36:57Z</time>
      </trkpt>
      <trkpt lat="32.957358" lon="35.411673">
        <ele>941.834</ele>
        <time>2016-05-12T06:39:32Z</time>
      </trkpt>
      <trkpt lat="32.956342" lon="35.412064">
        <ele>946.655</ele>
        <time>2016-05-12T06:41:03Z</time>
      </trkpt>
      <trkpt lat="32.955692" lon="35.412797">
        <ele>946.610</ele>
        <time>2016-05-12T06:42:13Z</time>
      </trkpt>
      <trkpt lat="32.955525" lon="35.413866">
        <ele>944.608</ele>
        <time>2016-05-12T06:43:27Z</time>
      </trkpt>
      <trkpt lat="32.955725" lon="35.415182">
        <ele>932.614</ele>
        <time>2016-05-12T06:45:01Z</time>
      </trkpt>
      <trkpt lat="32.955568" lon="35.416249">
        <ele>930.222</ele>
        <time>2016-05-12T06:46:48Z</time>
      </trkpt>
      <trkpt lat="32.955989" lon="35.417465">
        <ele>929.353</ele>
        <time>2016-05-12T07:05:38Z</time>
      </trkpt>
      <trkpt lat="32.957964" lon="35.418087">
        <ele>977.397</ele>
        <time>2016-05-12T07:24:14Z</time>
      </trkpt>
      <trkpt lat="32.959101" lon="35.417935">
        <ele>1000.444</ele>
        <time>2016-05-12T07:28:02Z</time>
      </trkpt>
      <trkpt lat="32.959566" lon="35.418105">
        <ele>1015.379</ele>
        <time>2016-05-12T07:29:35Z</time>
      </trkpt>
      <trkpt lat="32.960052" lon="35.418053">
        <ele>1027.351</ele>
        <time>2016-05-12T07:30:39Z</time>
      </trkpt>
      <trkpt lat="32.960571" lon="35.418511">
        <ele>1036.448</ele>
        <time>2016-05-12T07:31:57Z</time>
      </trkpt>
      <trkpt lat="32.960534" lon="35.420085">
        <ele>1029.225</ele>
        <time>2016-05-12T07:34:56Z</time>
      </trkpt>
      <trkpt lat="32.961485" lon="35.419911">
        <ele>1000.926</ele>
        <time>2016-05-12T07:38:05Z</time>
      </trkpt>
      <trkpt lat="32.961654" lon="35.419455">
        <ele>996.508</ele>
        <time>2016-05-12T07:38:57Z</time>
      </trkpt>
      <trkpt lat="32.961892" lon="35.419263">
        <ele>995.108</ele>
        <time>2016-05-12T07:39:20Z</time>
      </trkpt>
      <trkpt lat="32.962296" lon="35.419504">
        <ele>993.243</ele>
        <time>2016-05-12T07:40:06Z</time>
      </trkpt>
      <trkpt lat="32.963629" lon="35.419150">
        <ele>999.051</ele>
        <time>2016-05-12T07:43:35Z</time>
      </trkpt>
      <trkpt lat="32.963809" lon="35.419472">
        <ele>988.912</ele>
        <time>2016-05-12T07:44:31Z</time>
      </trkpt>
      <trkpt lat="32.963492" lon="35.419963">
        <ele>981.296</ele>
        <time>2016-05-12T07:45:49Z</time>
      </trkpt>
      <trkpt lat="32.963578" lon="35.420118">
        <ele>982.683</ele>
        <time>2016-05-12T07:46:04Z</time>
      </trkpt>
      <trkpt lat="32.964038" lon="35.420178">
        <ele>980.778</ele>
        <time>2016-05-12T07:46:45Z</time>
      </trkpt>
      <trkpt lat="32.964371" lon="35.420427">
        <ele>980.270</ele>
        <time>2016-05-12T07:47:16Z</time>
      </trkpt>
      <trkpt lat="32.964496" lon="35.420796">
        <ele>979.227</ele>
        <time>2016-05-12T07:48:03Z</time>
      </trkpt>
      <trkpt lat="32.964290" lon="35.421370">
        <ele>978.862</ele>
        <time>2016-05-12T07:48:55Z</time>
      </trkpt>
      <trkpt lat="32.964616" lon="35.421636">
        <ele>980.283</ele>
        <time>2016-05-12T07:49:58Z</time>
      </trkpt>
      <trkpt lat="32.964905" lon="35.422236">
        <ele>980.211</ele>
        <time>2016-05-12T07:50:46Z</time>
      </trkpt>
      <trkpt lat="32.964944" lon="35.422660">
        <ele>978.808</ele>
        <time>2016-05-12T07:51:16Z</time>
      </trkpt>
      <trkpt lat="32.964518" lon="35.423519">
        <ele>972.087</ele>
        <time>2016-05-12T07:52:27Z</time>
      </trkpt>
      <trkpt lat="32.964682" lon="35.424330">
        <ele>971.165</ele>
        <time>2016-05-12T07:53:46Z</time>
      </trkpt>
      <trkpt lat="32.965306" lon="35.424416">
        <ele>970.146</ele>
        <time>2016-05-12T07:55:10Z</time>
      </trkpt>
      <trkpt lat="32.966560" lon="35.423723">
        <ele>968.750</ele>
        <time>2016-05-12T07:57:03Z</time>
      </trkpt>
      <trkpt lat="32.967700" lon="35.423728">
        <ele>966.377</ele>
        <time>2016-05-12T07:58:32Z</time>
      </trkpt>
      <trkpt lat="32.968532" lon="35.424404">
        <ele>965.372</ele>
        <time>2016-05-12T07:59:54Z</time>
      </trkpt>
      <trkpt lat="32.969304" lon="35.425889">
        <ele>966.344</ele>
        <time>2016-05-12T08:02:32Z</time>
      </trkpt>
      <trkpt lat="32.970421" lon="35.425681">
        <ele>968.271</ele>
        <time>2016-05-12T08:04:06Z</time>
      </trkpt>
      <trkpt lat="32.970914" lon="35.425877">
        <ele>974.091</ele>
        <time>2016-05-12T08:04:51Z</time>
      </trkpt>
      <trkpt lat="32.970842" lon="35.426525">
        <ele>975.981</ele>
        <time>2016-05-12T08:06:08Z</time>
      </trkpt>
      <trkpt lat="32.970436" lon="35.427367">
        <ele>970.119</ele>
        <time>2016-05-12T08:07:16Z</time>
      </trkpt>
      <trkpt lat="32.970822" lon="35.428078">
        <ele>963.408</ele>
        <time>2016-05-12T08:08:18Z</time>
      </trkpt>
      <trkpt lat="32.970987" lon="35.429018">
        <ele>955.210</ele>
        <time>2016-05-12T08:10:22Z</time>
      </trkpt>
      <trkpt lat="32.970764" lon="35.427993">
        <ele>964.888</ele>
        <time>2016-05-12T08:11:59Z</time>
      </trkpt>
      <trkpt lat="32.970827" lon="35.427661">
        <ele>968.719</ele>
        <time>2016-05-12T08:12:28Z</time>
      </trkpt>
      <trkpt lat="32.970488" lon="35.427401">
        <ele>970.643</ele>
        <time>2016-05-12T08:13:04Z</time>
      </trkpt>
      <trkpt lat="32.970852" lon="35.426610">
        <ele>977.870</ele>
        <time>2016-05-12T08:14:13Z</time>
      </trkpt>
      <trkpt lat="32.970745" lon="35.426768">
        <ele>976.845</ele>
        <time>2016-05-12T08:14:37Z</time>
      </trkpt>
      <trkpt lat="32.970868" lon="35.426942">
        <ele>977.897</ele>
        <time>2016-05-12T08:14:58Z</time>
      </trkpt>
      <trkpt lat="32.971726" lon="35.427449">
        <ele>979.214</ele>
        <time>2016-05-12T08:16:18Z</time>
      </trkpt>
      <trkpt lat="32.972084" lon="35.428086">
        <ele>971.695</ele>
        <time>2016-05-12T08:17:12Z</time>
      </trkpt>
      <trkpt lat="32.972338" lon="35.428192">
        <ele>970.149</ele>
        <time>2016-05-12T08:17:37Z</time>
      </trkpt>
      <trkpt lat="32.974502" lon="35.428511">
        <ele>945.623</ele>
        <time>2016-05-12T08:34:47Z</time>
      </trkpt>
      <trkpt lat="32.975320" lon="35.428357">
        <ele>931.708</ele>
        <time>2016-05-12T08:36:35Z</time>
      </trkpt>
      <trkpt lat="32.975671" lon="35.427781">
        <ele>934.590</ele>
        <time>2016-05-12T08:37:28Z</time>
      </trkpt>
      <trkpt lat="32.975938" lon="35.426830">
        <ele>939.448</ele>
        <time>2016-05-12T08:40:31Z</time>
      </trkpt>
      <trkpt lat="32.975775" lon="35.425432">
        <ele>939.439</ele>
        <time>2016-05-12T08:50:26Z</time>
      </trkpt>
      <trkpt lat="32.977163" lon="35.423712">
        <ele>940.813</ele>
        <time>2016-05-12T08:53:05Z</time>
      </trkpt>
      <trkpt lat="32.977432" lon="35.423114">
        <ele>940.370</ele>
        <time>2016-05-12T08:54:18Z</time>
      </trkpt>
      <trkpt lat="32.977883" lon="35.423005">
        <ele>941.835</ele>
        <time>2016-05-12T08:55:15Z</time>
      </trkpt>
      <trkpt lat="32.978342" lon="35.422416">
        <ele>947.057</ele>
        <time>2016-05-12T08:56:34Z</time>
      </trkpt>
      <trkpt lat="32.978276" lon="35.421365">
        <ele>954.784</ele>
        <time>2016-05-12T08:57:49Z</time>
      </trkpt>
      <trkpt lat="32.977615" lon="35.420331">
        <ele>959.567</ele>
        <time>2016-05-12T08:59:43Z</time>
      </trkpt>
      <trkpt lat="32.977911" lon="35.419599">
        <ele>965.381</ele>
        <time>2016-05-12T09:00:39Z</time>
      </trkpt>
      <trkpt lat="32.977995" lon="35.418789">
        <ele>968.719</ele>
        <time>2016-05-12T09:01:43Z</time>
      </trkpt>
      <trkpt lat="32.977687" lon="35.418418">
        <ele>969.608</ele>
        <time>2016-05-12T09:02:21Z</time>
      </trkpt>
      <trkpt lat="32.977743" lon="35.417836">
        <ele>971.167</ele>
        <time>2016-05-12T09:02:58Z</time>
      </trkpt>
      <trkpt lat="32.977924" lon="35.416883">
        <ele>972.055</ele>
        <time>2016-05-12T09:05:33Z</time>
      </trkpt>
      <trkpt lat="32.978414" lon="35.415955">
        <ele>975.966</ele>
        <time>2016-05-12T09:08:18Z</time>
      </trkpt>
      <trkpt lat="32.978353" lon="35.414411">
        <ele>980.240</ele>
        <time>2016-05-12T09:09:58Z</time>
      </trkpt>
      <trkpt lat="32.978617" lon="35.414031">
        <ele>979.227</ele>
        <time>2016-05-12T09:10:33Z</time>
      </trkpt>
      <trkpt lat="32.979227" lon="35.414182">
        <ele>975.442</ele>
        <time>2016-05-12T09:12:06Z</time>
      </trkpt>
      <trkpt lat="32.979922" lon="35.414923">
        <ele>977.854</ele>
        <time>2016-05-12T09:13:26Z</time>
      </trkpt>
      <trkpt lat="32.980920" lon="35.415012">
        <ele>986.031</ele>
        <time>2016-05-12T09:14:52Z</time>
      </trkpt>
      <trkpt lat="32.983092" lon="35.414796">
        <ele>1017.278</ele>
        <time>2016-05-12T09:18:21Z</time>
      </trkpt>
      <trkpt lat="32.984008" lon="35.415208">
        <ele>1024.933</ele>
        <time>2016-05-12T09:20:00Z</time>
      </trkpt>
      <trkpt lat="32.984126" lon="35.415461">
        <ele>1023.026</ele>
        <time>2016-05-12T09:20:22Z</time>
      </trkpt>
      <trkpt lat="32.984652" lon="35.415055">
        <ele>1023.908</ele>
        <time>2016-05-12T09:21:13Z</time>
      </trkpt>
      <trkpt lat="32.985161" lon="35.414283">
        <ele>1027.398</ele>
        <time>2016-05-12T09:22:18Z</time>
      </trkpt>
      <trkpt lat="32.985371" lon="35.414239">
        <ele>1029.796</ele>
        <time>2016-05-12T09:22:49Z</time>
      </trkpt>
      <trkpt lat="32.985914" lon="35.414546">
        <ele>1031.627</ele>
        <time>2016-05-12T09:23:46Z</time>
      </trkpt>
      <trkpt lat="32.986934" lon="35.413967">
        <ele>1041.771</ele>
        <time>2016-05-12T09:25:35Z</time>
      </trkpt>
      <trkpt lat="32.987679" lon="35.413937">
        <ele>1058.138</ele>
        <time>2016-05-12T09:45:35Z</time>
      </trkpt>
      <trkpt lat="32.987615" lon="35.414038">
        <ele>1055.253</ele>
        <time>2016-05-12T10:49:25Z</time>
      </trkpt>
      <trkpt lat="32.987557" lon="35.413836">
        <ele>1055.245</ele>
        <time>2016-05-12T10:53:16Z</time>
      </trkpt>
      <trkpt lat="32.987894" lon="35.413014">
        <ele>1060.562</ele>
        <time>2016-05-12T10:54:24Z</time>
      </trkpt>
      <trkpt lat="32.988731" lon="35.411926">
        <ele>1068.246</ele>
        <time>2016-05-12T10:56:18Z</time>
      </trkpt>
      <trkpt lat="32.989273" lon="35.411616">
        <ele>1072.588</ele>
        <time>2016-05-12T10:57:13Z</time>
      </trkpt>
      <trkpt lat="32.989834" lon="35.410446">
        <ele>1086.016</ele>
        <time>2016-05-12T10:59:03Z</time>
      </trkpt>
      <trkpt lat="32.990372" lon="35.409872">
        <ele>1093.208</ele>
        <time>2016-05-12T11:00:20Z</time>
      </trkpt>
      <trkpt lat="32.990217" lon="35.409171">
        <ele>1085.075</ele>
        <time>2016-05-12T11:01:38Z</time>
      </trkpt>
      <trkpt lat="32.990448" lon="35.408863">
        <ele>1078.373</ele>
        <time>2016-05-12T11:02:16Z</time>
      </trkpt>
      <trkpt lat="32.991704" lon="35.410778">
        <ele>1089.384</ele>
        <time>2016-05-12T11:05:20Z</time>
      </trkpt>
      <trkpt lat="32.992221" lon="35.411943">
        <ele>1094.188</ele>
        <time>2016-05-12T11:07:33Z</time>
      </trkpt>
      <trkpt lat="32.992389" lon="35.412943">
        <ele>1090.865</ele>
        <time>2016-05-12T11:08:51Z</time>
      </trkpt>
      <trkpt lat="32.992636" lon="35.413388">
        <ele>1093.260</ele>
        <time>2016-05-12T11:09:34Z</time>
      </trkpt>
      <trkpt lat="32.993083" lon="35.413335">
        <ele>1098.962</ele>
        <time>2016-05-12T11:10:26Z</time>
      </trkpt>
      <trkpt lat="32.993432" lon="35.414026">
        <ele>1104.769</ele>
        <time>2016-05-12T11:12:10Z</time>
      </trkpt>
      <trkpt lat="32.993686" lon="35.415131">
        <ele>1115.363</ele>
        <time>2016-05-12T11:14:09Z</time>
      </trkpt>
      <trkpt lat="32.993927" lon="35.415071">
        <ele>1118.244</ele>
        <time>2016-05-12T11:14:35Z</time>
      </trkpt>
      <trkpt lat="32.994454" lon="35.415672">
        <ele>1127.318</ele>
        <time>2016-05-12T11:15:45Z</time>
      </trkpt>
      <trkpt lat="32.994626" lon="35.416836">
        <ele>1132.108</ele>
        <time>2016-05-12T11:18:13Z</time>
      </trkpt>
      <trkpt lat="32.996575" lon="35.417006">
        <ele>1139.337</ele>
        <time>2016-05-12T11:21:50Z</time>
      </trkpt>
      <trkpt lat="32.997480" lon="35.416361">
        <ele>1138.875</ele>
        <time>2016-05-12T11:23:51Z</time>
      </trkpt>
      <trkpt lat="32.997841" lon="35.415966">
        <ele>1143.176</ele>
        <time>2016-05-12T11:25:17Z</time>
      </trkpt>
      <trkpt lat="32.997990" lon="35.415406">
        <ele>1148.940</ele>
        <time>2016-05-12T11:26:05Z</time>
      </trkpt>
      <trkpt lat="32.998414" lon="35.414954">
        <ele>1154.217</ele>
        <time>2016-05-12T11:27:02Z</time>
      </trkpt>
      <trkpt lat="32.998733" lon="35.414252">
        <ele>1157.132</ele>
        <time>2016-05-12T11:28:10Z</time>
      </trkpt>
      <trkpt lat="32.999279" lon="35.413605">
        <ele>1160.014</ele>
        <time>2016-05-12T11:29:50Z</time>
      </trkpt>
      <trkpt lat="33.000155" lon="35.411927">
        <ele>1169.171</ele>
        <time>2016-05-12T11:33:19Z</time>
      </trkpt>
      <trkpt lat="33.000086" lon="35.411298">
        <ele>1171.061</ele>
        <time>2016-05-12T11:34:24Z</time>
      </trkpt>
      <trkpt lat="32.999711" lon="35.411208">
        <ele>1171.021</ele>
        <time>2016-05-12T11:35:01Z</time>
      </trkpt>
      <trkpt lat="32.999584" lon="35.411040">
        <ele>1169.613</ele>
        <time>2016-05-12T11:35:17Z</time>
      </trkpt>
      <trkpt lat="32.999510" lon="35.410145">
        <ele>1170.508</ele>
        <time>2016-05-12T11:36:21Z</time>
      </trkpt>
      <trkpt lat="32.999211" lon="35.409395">
        <ele>1173.447</ele>
        <time>2016-05-12T11:37:25Z</time>
      </trkpt>
      <trkpt lat="32.999204" lon="35.408534">
        <ele>1169.635</ele>
        <time>2016-05-12T11:38:40Z</time>
      </trkpt>
      <trkpt lat="32.999605" lon="35.407325">
        <ele>1172.596</ele>
        <time>2016-05-12T11:40:19Z</time>
      </trkpt>
      <trkpt lat="32.999293" lon="35.406528">
        <ele>1174.470</ele>
        <time>2016-05-12T11:41:26Z</time>
      </trkpt>
      <trkpt lat="32.999345" lon="35.406354">
        <ele>1172.557</ele>
        <time>2016-05-12T11:41:39Z</time>
      </trkpt>
      <trkpt lat="32.999484" lon="35.406023">
        <ele>1168.632</ele>
        <time>2016-05-12T11:42:12Z</time>
      </trkpt>
      <trkpt lat="33.000183" lon="35.405337">
        <ele>1162.984</ele>
        <time>2016-05-12T11:44:46Z</time>
      </trkpt>
      <trkpt lat="33.000178" lon="35.405164">
        <ele>1160.571</ele>
        <time>2016-05-12T11:45:02Z</time>
      </trkpt>
      <trkpt lat="33.000991" lon="35.404696">
        <ele>1148.479</ele>
        <time>2016-05-12T11:46:47Z</time>
      </trkpt>
      <trkpt lat="33.001598" lon="35.404050">
        <ele>1132.605</ele>
        <time>2016-05-12T11:49:02Z</time>
      </trkpt>
      <trkpt lat="33.001939" lon="35.403896">
        <ele>1123.025</ele>
        <time>2016-05-12T11:50:00Z</time>
      </trkpt>
      <trkpt lat="33.002074" lon="35.403415">
        <ele>1117.708</ele>
        <time>2016-05-12T11:50:53Z</time>
      </trkpt>
      <trkpt lat="33.002444" lon="35.403428">
        <ele>1115.828</ele>
        <time>2016-05-12T11:51:29Z</time>
      </trkpt>
      <trkpt lat="33.002941" lon="35.403180">
        <ele>1118.286</ele>
        <time>2016-05-12T12:14:48Z</time>
      </trkpt>
      <trkpt lat="33.002852" lon="35.403017">
        <ele>1114.827</ele>
        <time>2016-05-12T12:15:16Z</time>
      </trkpt>
      <trkpt lat="33.002585" lon="35.403036">
        <ele>1110.981</ele>
        <time>2016-05-12T12:15:45Z</time>
      </trkpt>
      <trkpt lat="33.001823" lon="35.402696">
        <ele>1108.568</ele>
        <time>2016-05-12T12:17:24Z</time>
      </trkpt>
      <trkpt lat="33.000808" lon="35.402614">
        <ele>1095.173</ele>
        <time>2016-05-12T12:18:52Z</time>
      </trkpt>
      <trkpt lat="32.999444" lon="35.402214">
        <ele>1083.565</ele>
        <time>2016-05-12T12:20:49Z</time>
      </trkpt>
      <trkpt lat="32.999150" lon="35.402308">
        <ele>1082.652</ele>
        <time>2016-05-12T12:21:14Z</time>
      </trkpt>
      <trkpt lat="32.998968" lon="35.401646">
        <ele>1069.195</ele>
        <time>2016-05-12T12:22:17Z</time>
      </trkpt>
      <trkpt lat="32.999336" lon="35.400928">
        <ele>1055.249</ele>
        <time>2016-05-12T12:24:08Z</time>
      </trkpt>
      <trkpt lat="32.999345" lon="35.400405">
        <ele>1046.123</ele>
        <time>2016-05-12T12:24:52Z</time>
      </trkpt>
      <trkpt lat="33.000142" lon="35.401060">
        <ele>1037.408</ele>
        <time>2016-05-12T12:26:23Z</time>
      </trkpt>
      <trkpt lat="33.000576" lon="35.401079">
        <ele>1034.550</ele>
        <time>2016-05-12T12:27:13Z</time>
      </trkpt>
      <trkpt lat="33.002163" lon="35.399300">
        <ele>1023.928</ele>
        <time>2016-05-12T12:31:07Z</time>
      </trkpt>
      <trkpt lat="33.003846" lon="35.397987">
        <ele>1011.079</ele>
        <time>2016-05-12T12:34:15Z</time>
      </trkpt>
      <trkpt lat="33.003892" lon="35.397662">
        <ele>1005.283</ele>
        <time>2016-05-12T12:34:52Z</time>
      </trkpt>
      <trkpt lat="33.004098" lon="35.397643">
        <ele>999.990</ele>
        <time>2016-05-12T12:35:40Z</time>
      </trkpt>
      <trkpt lat="33.004335" lon="35.397213">
        <ele>987.965</ele>
        <time>2016-05-12T12:36:44Z</time>
      </trkpt>
      <trkpt lat="33.004757" lon="35.397833">
        <ele>969.237</ele>
        <time>2016-05-12T12:38:33Z</time>
      </trkpt>
      <trkpt lat="33.005329" lon="35.396766">
        <ele>941.874</ele>
        <time>2016-05-12T12:40:53Z</time>
      </trkpt>
      <trkpt lat="33.005586" lon="35.396741">
        <ele>938.973</ele>
        <time>2016-05-12T12:41:23Z</time>
      </trkpt>
      <trkpt lat="33.006474" lon="35.395898">
        <ele>918.785</ele>
        <time>2016-05-12T12:43:48Z</time>
      </trkpt>
      <trkpt lat="33.007037" lon="35.395509">
        <ele>908.613</ele>
        <time>2016-05-12T12:44:48Z</time>
      </trkpt>
      <trkpt lat="33.008161" lon="35.395278">
        <ele>905.208</ele>
        <time>2016-05-12T12:46:40Z</time>
      </trkpt>
      <trkpt lat="33.007972" lon="35.394974">
        <ele>896.128</ele>
        <time>2016-05-12T12:47:31Z</time>
      </trkpt>
      <trkpt lat="33.007994" lon="35.394735">
        <ele>894.696</ele>
        <time>2016-05-12T12:48:05Z</time>
      </trkpt>
      <trkpt lat="33.008808" lon="35.393686">
        <ele>890.387</ele>
        <time>2016-05-12T12:49:59Z</time>
      </trkpt>
      <trkpt lat="33.009155" lon="35.393707">
        <ele>888.421</ele>
        <time>2016-05-12T12:51:34Z</time>
      </trkpt>
      <trkpt lat="33.009748" lon="35.394564">
        <ele>871.648</ele>
        <time>2016-05-12T12:55:36Z</time>
      </trkpt>
      <trkpt lat="33.009129" lon="35.393745">
        <ele>888.973</ele>
        <time>2016-05-12T13:36:13Z</time>
      </trkpt>
      <trkpt lat="33.009745" lon="35.393503">
        <ele>885.055</ele>
        <time>2016-05-12T13:43:44Z</time>
      </trkpt>
      <trkpt lat="33.010763" lon="35.393727">
        <ele>883.112</ele>
        <time>2016-05-12T13:45:16Z</time>
      </trkpt>
      <trkpt lat="33.011402" lon="35.393565">
        <ele>892.221</ele>
        <time>2016-05-12T13:46:19Z</time>
      </trkpt>
      <trkpt lat="33.012451" lon="35.394256">
        <ele>895.641</ele>
        <time>2016-05-12T13:48:09Z</time>
      </trkpt>
      <trkpt lat="33.012974" lon="35.394172">
        <ele>894.205</ele>
        <time>2016-05-12T13:48:55Z</time>
      </trkpt>
      <trkpt lat="33.013622" lon="35.394382">
        <ele>890.308</ele>
        <time>2016-05-12T13:49:52Z</time>
      </trkpt>
      <trkpt lat="33.014440" lon="35.394033">
        <ele>879.353</ele>
        <time>2016-05-12T13:51:43Z</time>
      </trkpt>
      <trkpt lat="33.016184" lon="35.395236">
        <ele>830.221</ele>
        <time>2016-05-12T13:56:13Z</time>
      </trkpt>
      <trkpt lat="33.016175" lon="35.396470">
        <ele>817.762</ele>
        <time>2016-05-12T13:58:01Z</time>
      </trkpt>
      <trkpt lat="33.016438" lon="35.397823">
        <ele>806.766</ele>
        <time>2016-05-12T14:00:23Z</time>
      </trkpt>
      <trkpt lat="33.017655" lon="35.399056">
        <ele>789.923</ele>
        <time>2016-05-12T14:03:05Z</time>
      </trkpt>
      <trkpt lat="33.018238" lon="35.400318">
        <ele>779.318</ele>
        <time>2016-05-12T14:04:50Z</time>
      </trkpt>
      <trkpt lat="33.018463" lon="35.401299">
        <ele>773.590</ele>
        <time>2016-05-12T14:06:08Z</time>
      </trkpt>
      <trkpt lat="33.019047" lon="35.402411">
        <ele>764.477</ele>
        <time>2016-05-12T14:07:47Z</time>
      </trkpt>
      <trkpt lat="33.019356" lon="35.404877">
        <ele>750.012</ele>
        <time>2016-05-12T14:11:24Z</time>
      </trkpt>
      <trkpt lat="33.019504" lon="35.405225">
        <ele>748.032</ele>
        <time>2016-05-12T14:11:52Z</time>
      </trkpt>
      <trkpt lat="33.020486" lon="35.406435">
        <ele>738.405</ele>
        <time>2016-05-12T14:13:52Z</time>
      </trkpt>
      <trkpt lat="33.021994" lon="35.407891">
        <ele>724.508</ele>
        <time>2016-05-12T14:17:45Z</time>
      </trkpt>
      <trkpt lat="33.022222" lon="35.408719">
        <ele>722.172</ele>
        <time>2016-05-12T14:18:48Z</time>
      </trkpt>
      <trkpt lat="33.022860" lon="35.409529">
        <ele>718.730</ele>
        <time>2016-05-12T14:20:12Z</time>
      </trkpt>
      <trkpt lat="33.023360" lon="35.409230">
        <ele>721.131</ele>
        <time>2016-05-12T14:21:27Z</time>
      </trkpt>
      <trkpt lat="33.024072" lon="35.410125">
        <ele>713.425</ele>
        <time>2016-05-12T14:22:56Z</time>
      </trkpt>
      <trkpt lat="33.025313" lon="35.410900">
        <ele>708.232</ele>
        <time>2016-05-12T14:24:44Z</time>
      </trkpt>
      <trkpt lat="33.025571" lon="35.411235">
        <ele>707.247</ele>
        <time>2016-05-12T14:25:14Z</time>
      </trkpt>
      <trkpt lat="33.026049" lon="35.411296">
        <ele>705.369</ele>
        <time>2016-05-12T14:25:51Z</time>
      </trkpt>
      <trkpt lat="33.026518" lon="35.411578">
        <ele>704.366</ele>
        <time>2016-05-12T14:26:34Z</time>
      </trkpt>
      <trkpt lat="33.026486" lon="35.411408">
        <ele>706.274</ele>
        <time>2016-05-12T14:26:58Z</time>
      </trkpt>
      <trkpt lat="33.026363" lon="35.411480">
        <ele>701.956</ele>
        <time>2016-05-13T03:39:15Z</time>
      </trkpt>
      <trkpt lat="33.025550" lon="35.411216">
        <ele>708.221</ele>
        <time>2016-05-13T03:41:32Z</time>
      </trkpt>
      <trkpt lat="33.023553" lon="35.409595">
        <ele>716.808</ele>
        <time>2016-05-13T03:44:51Z</time>
      </trkpt>
      <trkpt lat="33.023249" lon="35.409175">
        <ele>721.618</ele>
        <time>2016-05-13T03:45:31Z</time>
      </trkpt>
      <trkpt lat="33.023039" lon="35.409554">
        <ele>719.766</ele>
        <time>2016-05-13T03:46:48Z</time>
      </trkpt>
      <trkpt lat="33.022866" lon="35.409532">
        <ele>720.287</ele>
        <time>2016-05-13T03:47:11Z</time>
      </trkpt>
      <trkpt lat="33.022404" lon="35.409047">
        <ele>720.221</ele>
        <time>2016-05-13T03:48:02Z</time>
      </trkpt>
      <trkpt lat="33.022018" lon="35.407894">
        <ele>724.598</ele>
        <time>2016-05-13T03:49:36Z</time>
      </trkpt>
      <trkpt lat="33.019550" lon="35.405313">
        <ele>746.643</ele>
        <time>2016-05-13T03:55:25Z</time>
      </trkpt>
      <trkpt lat="33.019370" lon="35.404815">
        <ele>748.025</ele>
        <time>2016-05-13T03:56:04Z</time>
      </trkpt>
      <trkpt lat="33.019072" lon="35.402476">
        <ele>760.542</ele>
        <time>2016-05-13T04:02:05Z</time>
      </trkpt>
      <trkpt lat="33.018485" lon="35.401216">
        <ele>769.257</ele>
        <time>2016-05-13T04:03:53Z</time>
      </trkpt>
      <trkpt lat="33.018239" lon="35.400235">
        <ele>775.400</ele>
        <time>2016-05-13T04:05:09Z</time>
      </trkpt>
      <trkpt lat="33.017742" lon="35.399162">
        <ele>785.120</ele>
        <time>2016-05-13T04:06:58Z</time>
      </trkpt>
      <trkpt lat="33.016942" lon="35.398401">
        <ele>794.208</ele>
        <time>2016-05-13T04:08:34Z</time>
      </trkpt>
      <trkpt lat="33.016326" lon="35.397457">
        <ele>803.326</ele>
        <time>2016-05-13T04:10:15Z</time>
      </trkpt>
      <trkpt lat="33.016178" lon="35.395173">
        <ele>825.924</ele>
        <time>2016-05-13T04:14:13Z</time>
      </trkpt>
      <trkpt lat="33.014551" lon="35.394061">
        <ele>874.045</ele>
        <time>2016-05-13T04:18:58Z</time>
      </trkpt>
      <trkpt lat="33.013688" lon="35.394376">
        <ele>885.079</ele>
        <time>2016-05-13T04:20:38Z</time>
      </trkpt>
      <trkpt lat="33.013013" lon="35.394184">
        <ele>889.426</ele>
        <time>2016-05-13T04:21:36Z</time>
      </trkpt>
      <trkpt lat="33.012399" lon="35.394236">
        <ele>890.891</ele>
        <time>2016-05-13T04:22:27Z</time>
      </trkpt>
      <trkpt lat="33.012269" lon="35.394007">
        <ele>892.733</ele>
        <time>2016-05-13T04:22:50Z</time>
      </trkpt>
      <trkpt lat="33.011953" lon="35.393920">
        <ele>892.220</ele>
        <time>2016-05-13T04:23:22Z</time>
      </trkpt>
      <trkpt lat="33.011547" lon="35.393545">
        <ele>889.481</ele>
        <time>2016-05-13T04:24:14Z</time>
      </trkpt>
      <trkpt lat="33.010832" lon="35.393737">
        <ele>879.761</ele>
        <time>2016-05-13T04:26:03Z</time>
      </trkpt>
      <trkpt lat="33.009966" lon="35.393530">
        <ele>881.217</ele>
        <time>2016-05-13T04:27:20Z</time>
      </trkpt>
      <trkpt lat="33.009293" lon="35.393639">
        <ele>881.708</ele>
        <time>2016-05-13T04:28:18Z</time>
      </trkpt>
      <trkpt lat="33.010142" lon="35.391374">
        <ele>882.219</ele>
        <time>2016-05-13T04:28:31Z</time>
      </trkpt>
      <trkpt lat="33.009165" lon="35.393720">
        <ele>880.747</ele>
        <time>2016-05-13T04:42:25Z</time>
      </trkpt>
      <trkpt lat="33.009802" lon="35.393484">
        <ele>879.738</ele>
        <time>2016-05-13T04:48:15Z</time>
      </trkpt>
      <trkpt lat="33.011070" lon="35.393670">
        <ele>881.762</ele>
        <time>2016-05-13T04:50:06Z</time>
      </trkpt>
      <trkpt lat="33.011614" lon="35.393365">
        <ele>888.989</ele>
        <time>2016-05-13T04:51:08Z</time>
      </trkpt>
      <trkpt lat="33.012339" lon="35.393239">
        <ele>885.064</ele>
        <time>2016-05-13T04:52:54Z</time>
      </trkpt>
      <trkpt lat="33.013003" lon="35.392528">
        <ele>864.866</ele>
        <time>2016-05-13T04:54:50Z</time>
      </trkpt>
      <trkpt lat="33.013063" lon="35.392014">
        <ele>859.653</ele>
        <time>2016-05-13T04:55:34Z</time>
      </trkpt>
      <trkpt lat="33.013348" lon="35.391761">
        <ele>851.931</ele>
        <time>2016-05-13T04:57:17Z</time>
      </trkpt>
      <trkpt lat="33.013187" lon="35.391334">
        <ele>856.261</ele>
        <time>2016-05-13T04:58:30Z</time>
      </trkpt>
      <trkpt lat="33.013199" lon="35.390528">
        <ele>856.207</ele>
        <time>2016-05-13T04:59:30Z</time>
      </trkpt>
      <trkpt lat="33.013812" lon="35.388198">
        <ele>833.108</ele>
        <time>2016-05-13T05:05:03Z</time>
      </trkpt>
      <trkpt lat="33.013375" lon="35.386627">
        <ele>826.434</ele>
        <time>2016-05-13T05:07:53Z</time>
      </trkpt>
      <trkpt lat="33.013464" lon="35.386488">
        <ele>824.032</ele>
        <time>2016-05-13T05:08:13Z</time>
      </trkpt>
      <trkpt lat="33.013321" lon="35.385878">
        <ele>823.593</ele>
        <time>2016-05-13T05:10:08Z</time>
      </trkpt>
      <trkpt lat="33.013059" lon="35.385519">
        <ele>831.787</ele>
        <time>2016-05-13T05:11:06Z</time>
      </trkpt>
      <trkpt lat="33.012871" lon="35.383615">
        <ele>831.784</ele>
        <time>2016-05-13T05:14:46Z</time>
      </trkpt>
      <trkpt lat="33.013037" lon="35.382904">
        <ele>817.799</ele>
        <time>2016-05-13T05:16:08Z</time>
      </trkpt>
      <trkpt lat="33.012754" lon="35.382202">
        <ele>820.691</ele>
        <time>2016-05-13T05:17:32Z</time>
      </trkpt>
      <trkpt lat="33.012748" lon="35.381318">
        <ele>819.718</ele>
        <time>2016-05-13T05:18:35Z</time>
      </trkpt>
      <trkpt lat="33.012200" lon="35.379349">
        <ele>818.788</ele>
        <time>2016-05-13T05:20:58Z</time>
      </trkpt>
      <trkpt lat="33.011359" lon="35.378248">
        <ele>804.324</ele>
        <time>2016-05-13T05:23:52Z</time>
      </trkpt>
      <trkpt lat="33.010543" lon="35.377982">
        <ele>790.826</ele>
        <time>2016-05-13T05:26:02Z</time>
      </trkpt>
      <trkpt lat="33.010419" lon="35.377801">
        <ele>795.208</ele>
        <time>2016-05-13T05:27:13Z</time>
      </trkpt>
      <trkpt lat="33.011188" lon="35.376981">
        <ele>786.529</ele>
        <time>2016-05-13T05:30:25Z</time>
      </trkpt>
      <trkpt lat="33.011560" lon="35.375838">
        <ele>774.037</ele>
        <time>2016-05-13T05:36:47Z</time>
      </trkpt>
      <trkpt lat="33.011730" lon="35.374969">
        <ele>769.258</ele>
        <time>2016-05-13T05:38:01Z</time>
      </trkpt>
      <trkpt lat="33.011720" lon="35.373836">
        <ele>764.922</ele>
        <time>2016-05-13T05:39:31Z</time>
      </trkpt>
      <trkpt lat="33.011884" lon="35.373269">
        <ele>763.919</ele>
        <time>2016-05-13T05:40:22Z</time>
      </trkpt>
      <trkpt lat="33.012115" lon="35.373040">
        <ele>761.094</ele>
        <time>2016-05-13T05:49:38Z</time>
      </trkpt>
      <trkpt lat="33.012368" lon="35.371633">
        <ele>756.256</ele>
        <time>2016-05-13T05:52:43Z</time>
      </trkpt>
      <trkpt lat="33.012440" lon="35.369686">
        <ele>738.433</ele>
        <time>2016-05-13T05:56:33Z</time>
      </trkpt>
      <trkpt lat="33.011329" lon="35.367123">
        <ele>708.683</ele>
        <time>2016-05-13T06:02:49Z</time>
      </trkpt>
      <trkpt lat="33.010164" lon="35.365688">
        <ele>695.225</ele>
        <time>2016-05-13T06:06:46Z</time>
      </trkpt>
      <trkpt lat="33.009498" lon="35.365397">
        <ele>692.817</ele>
        <time>2016-05-13T06:09:00Z</time>
      </trkpt>
      <trkpt lat="33.008594" lon="35.364306">
        <ele>684.608</ele>
        <time>2016-05-13T06:19:35Z</time>
      </trkpt>
      <trkpt lat="33.007356" lon="35.363635">
        <ele>676.499</ele>
        <time>2016-05-13T06:21:39Z</time>
      </trkpt>
      <trkpt lat="33.006862" lon="35.362766">
        <ele>672.627</ele>
        <time>2016-05-13T06:23:00Z</time>
      </trkpt>
      <trkpt lat="33.005721" lon="35.362094">
        <ele>664.458</ele>
        <time>2016-05-13T06:25:36Z</time>
      </trkpt>
      <trkpt lat="33.005325" lon="35.362340">
        <ele>663.512</ele>
        <time>2016-05-13T06:26:14Z</time>
      </trkpt>
      <trkpt lat="33.004730" lon="35.362179">
        <ele>658.239</ele>
        <time>2016-05-13T06:27:19Z</time>
      </trkpt>
      <trkpt lat="33.004561" lon="35.361586">
        <ele>655.844</ele>
        <time>2016-05-13T06:28:17Z</time>
      </trkpt>
      <trkpt lat="33.003802" lon="35.360344">
        <ele>651.416</ele>
        <time>2016-05-13T06:30:48Z</time>
      </trkpt>
      <trkpt lat="33.003779" lon="35.359462">
        <ele>647.613</ele>
        <time>2016-05-13T06:33:31Z</time>
      </trkpt>
      <trkpt lat="33.002127" lon="35.356977">
        <ele>643.313</ele>
        <time>2016-05-13T06:40:29Z</time>
      </trkpt>
      <trkpt lat="33.001578" lon="35.355368">
        <ele>635.643</ele>
        <time>2016-05-13T06:43:12Z</time>
      </trkpt>
      <trkpt lat="33.001441" lon="35.354762">
        <ele>636.507</ele>
        <time>2016-05-13T06:44:42Z</time>
      </trkpt>
      <trkpt lat="33.001512" lon="35.354450">
        <ele>638.908</ele>
        <time>2016-05-13T06:45:15Z</time>
      </trkpt>
      <trkpt lat="33.002799" lon="35.353304">
        <ele>627.912</ele>
        <time>2016-05-13T06:48:16Z</time>
      </trkpt>
      <trkpt lat="33.002839" lon="35.352528">
        <ele>631.790</ele>
        <time>2016-05-13T06:49:25Z</time>
      </trkpt>
      <trkpt lat="33.003240" lon="35.351841">
        <ele>641.321</ele>
        <time>2016-05-13T06:50:46Z</time>
      </trkpt>
      <trkpt lat="33.003755" lon="35.351584">
        <ele>642.875</ele>
        <time>2016-05-13T06:51:56Z</time>
      </trkpt>
      <trkpt lat="33.004786" lon="35.350386">
        <ele>633.232</ele>
        <time>2016-05-13T06:55:48Z</time>
      </trkpt>
      <trkpt lat="33.004802" lon="35.350535">
        <ele>633.257</ele>
        <time>2016-05-13T06:57:35Z</time>
      </trkpt>
      <trkpt lat="33.004780" lon="35.350426">
        <ele>633.779</ele>
        <time>2016-05-13T07:00:17Z</time>
      </trkpt>
      <trkpt lat="33.005415" lon="35.350030">
        <ele>633.736</ele>
        <time>2016-05-13T07:06:08Z</time>
      </trkpt>
      <trkpt lat="33.005746" lon="35.348635">
        <ele>633.782</ele>
        <time>2016-05-13T07:08:32Z</time>
      </trkpt>
      <trkpt lat="33.006385" lon="35.347467">
        <ele>633.243</ele>
        <time>2016-05-13T07:10:26Z</time>
      </trkpt>
      <trkpt lat="33.006409" lon="35.346874">
        <ele>630.817</ele>
        <time>2016-05-13T07:12:20Z</time>
      </trkpt>
      <trkpt lat="33.005577" lon="35.345929">
        <ele>626.908</ele>
        <time>2016-05-13T07:14:33Z</time>
      </trkpt>
      <trkpt lat="33.004508" lon="35.344111">
        <ele>613.989</ele>
        <time>2016-05-13T07:19:27Z</time>
      </trkpt>
      <trkpt lat="33.004110" lon="35.344344">
        <ele>635.667</ele>
        <time>2016-05-13T07:22:31Z</time>
      </trkpt>
      <trkpt lat="33.003723" lon="35.345249">
        <ele>672.198</ele>
        <time>2016-05-13T07:26:49Z</time>
      </trkpt>
      <trkpt lat="33.003363" lon="35.345540">
        <ele>689.462</ele>
        <time>2016-05-13T07:29:17Z</time>
      </trkpt>
      <trkpt lat="33.003441" lon="35.346079">
        <ele>706.749</ele>
        <time>2016-05-13T07:31:28Z</time>
      </trkpt>
      <trkpt lat="33.002619" lon="35.346287">
        <ele>724.524</ele>
        <time>2016-05-13T07:34:42Z</time>
      </trkpt>
      <trkpt lat="33.002413" lon="35.346824">
        <ele>738.096</ele>
        <time>2016-05-13T07:36:31Z</time>
      </trkpt>
      <trkpt lat="33.002174" lon="35.346859">
        <ele>742.333</ele>
        <time>2016-05-13T07:38:45Z</time>
      </trkpt>
      <trkpt lat="33.001808" lon="35.347800">
        <ele>757.222</ele>
        <time>2016-05-13T07:40:53Z</time>
      </trkpt>
      <trkpt lat="33.001586" lon="35.347860">
        <ele>758.662</ele>
        <time>2016-05-13T07:41:30Z</time>
      </trkpt>
      <trkpt lat="33.001422" lon="35.348243">
        <ele>764.408</ele>
        <time>2016-05-13T07:42:36Z</time>
      </trkpt>
      <trkpt lat="33.001190" lon="35.348406">
        <ele>766.808</ele>
        <time>2016-05-13T07:43:14Z</time>
      </trkpt>
      <trkpt lat="33.000997" lon="35.349019">
        <ele>778.863</ele>
        <time>2016-05-13T07:45:08Z</time>
      </trkpt>
      <trkpt lat="33.000683" lon="35.349234">
        <ele>782.751</ele>
        <time>2016-05-13T07:45:58Z</time>
      </trkpt>
      <trkpt lat="33.000499" lon="35.350303">
        <ele>786.052</ele>
        <time>2016-05-13T08:14:33Z</time>
      </trkpt>
      <trkpt lat="32.998506" lon="35.352048">
        <ele>805.716</ele>
        <time>2016-05-13T09:07:25Z</time>
      </trkpt>
      <trkpt lat="32.998104" lon="35.352145">
        <ele>813.493</ele>
        <time>2016-05-13T09:08:30Z</time>
      </trkpt>
      <trkpt lat="32.997489" lon="35.351931">
        <ele>818.228</ele>
        <time>2016-05-13T09:09:57Z</time>
      </trkpt>
      <trkpt lat="32.997064" lon="35.351991">
        <ele>820.630</ele>
        <time>2016-05-13T09:10:45Z</time>
      </trkpt>
      <trkpt lat="32.995823" lon="35.351246">
        <ele>834.187</ele>
        <time>2016-05-13T09:13:26Z</time>
      </trkpt>
      <trkpt lat="32.995601" lon="35.350889">
        <ele>838.948</ele>
        <time>2016-05-13T09:14:14Z</time>
      </trkpt>
      <trkpt lat="32.995671" lon="35.350645">
        <ele>840.861</ele>
        <time>2016-05-13T09:14:43Z</time>
      </trkpt>
      <trkpt lat="32.995440" lon="35.349927">
        <ele>843.217</ele>
        <time>2016-05-13T09:16:47Z</time>
      </trkpt>
      <trkpt lat="32.994185" lon="35.349714">
        <ele>848.008</ele>
        <time>2016-05-13T09:19:47Z</time>
      </trkpt>
      <trkpt lat="32.992448" lon="35.349650">
        <ele>841.835</ele>
        <time>2016-05-13T09:23:41Z</time>
      </trkpt>
      <trkpt lat="32.992023" lon="35.348730">
        <ele>833.123</ele>
        <time>2016-05-13T09:25:39Z</time>
      </trkpt>
      <trkpt lat="32.991306" lon="35.348633">
        <ele>836.084</ele>
        <time>2016-05-13T09:27:45Z</time>
      </trkpt>
      <trkpt lat="32.991104" lon="35.348864">
        <ele>837.988</ele>
        <time>2016-05-13T09:28:16Z</time>
      </trkpt>
      <trkpt lat="32.990364" lon="35.349024">
        <ele>848.525</ele>
        <time>2016-05-13T09:29:49Z</time>
      </trkpt>
      <trkpt lat="32.990221" lon="35.349306">
        <ele>851.950</ele>
        <time>2016-05-13T09:30:27Z</time>
      </trkpt>
      <trkpt lat="32.989580" lon="35.349200">
        <ele>850.982</ele>
        <time>2016-05-13T09:31:38Z</time>
      </trkpt>
      <trkpt lat="32.989402" lon="35.349326">
        <ele>849.589</ele>
        <time>2016-05-13T09:32:12Z</time>
      </trkpt>
      <trkpt lat="32.989314" lon="35.349744">
        <ele>849.993</ele>
        <time>2016-05-13T09:33:10Z</time>
      </trkpt>
      <trkpt lat="32.989418" lon="35.349706">
        <ele>851.465</ele>
        <time>2016-05-13T09:33:38Z</time>
      </trkpt>
      <trkpt lat="32.989441" lon="35.350001">
        <ele>853.321</ele>
        <time>2016-05-13T09:34:49Z</time>
      </trkpt>
      <trkpt lat="32.989742" lon="35.350376">
        <ele>859.108</ele>
        <time>2016-05-13T09:36:55Z</time>
      </trkpt>
      <trkpt lat="32.989502" lon="35.350048">
        <ele>853.890</ele>
        <time>2016-05-13T09:38:34Z</time>
      </trkpt>
      <trkpt lat="32.989265" lon="35.349963">
        <ele>851.498</ele>
        <time>2016-05-13T09:39:38Z</time>
      </trkpt>
      <trkpt lat="32.988844" lon="35.350055">
        <ele>852.479</ele>
        <time>2016-05-13T09:40:48Z</time>
      </trkpt>
      <trkpt lat="32.988649" lon="35.350864">
        <ele>857.663</ele>
        <time>2016-05-13T09:42:25Z</time>
      </trkpt>
      <trkpt lat="32.987995" lon="35.351132">
        <ele>857.690</ele>
        <time>2016-05-13T09:43:52Z</time>
      </trkpt>
      <trkpt lat="32.987680" lon="35.351793">
        <ele>861.595</ele>
        <time>2016-05-13T09:45:18Z</time>
      </trkpt>
      <trkpt lat="32.987069" lon="35.352402">
        <ele>862.477</ele>
        <time>2016-05-13T09:48:01Z</time>
      </trkpt>
      <trkpt lat="32.986520" lon="35.353733">
        <ele>866.874</ele>
        <time>2016-05-13T09:50:51Z</time>
      </trkpt>
      <trkpt lat="32.985195" lon="35.354860">
        <ele>873.583</ele>
        <time>2016-05-13T09:54:19Z</time>
      </trkpt>
      <trkpt lat="32.984959" lon="35.354870">
        <ele>873.525</ele>
        <time>2016-05-13T09:55:02Z</time>
      </trkpt>
      <trkpt lat="32.984627" lon="35.355146">
        <ele>875.417</ele>
        <time>2016-05-13T09:56:14Z</time>
      </trkpt>
      <trkpt lat="32.984602" lon="35.355337">
        <ele>879.308</ele>
        <time>2016-05-13T09:56:48Z</time>
      </trkpt>
      <trkpt lat="32.983883" lon="35.355558">
        <ele>880.729</ele>
        <time>2016-05-13T09:58:23Z</time>
      </trkpt>
      <trkpt lat="32.983301" lon="35.356158">
        <ele>891.827</ele>
        <time>2016-05-13T10:01:25Z</time>
      </trkpt>
      <trkpt lat="32.982736" lon="35.356252">
        <ele>899.588</ele>
        <time>2016-05-13T10:14:22Z</time>
      </trkpt>
      <trkpt lat="32.981996" lon="35.355762">
        <ele>905.252</ele>
        <time>2016-05-13T10:16:10Z</time>
      </trkpt>
      <trkpt lat="32.981039" lon="35.355538">
        <ele>919.639</ele>
        <time>2016-05-13T10:19:26Z</time>
      </trkpt>
      <trkpt lat="32.980124" lon="35.355964">
        <ele>928.394</ele>
        <time>2016-05-13T10:22:00Z</time>
      </trkpt>
      <trkpt lat="32.979471" lon="35.356038">
        <ele>925.466</ele>
        <time>2016-05-13T10:24:00Z</time>
      </trkpt>
      <trkpt lat="32.978672" lon="35.355645">
        <ele>917.273</ele>
        <time>2016-05-13T10:25:52Z</time>
      </trkpt>
      <trkpt lat="32.977992" lon="35.355494">
        <ele>921.672</ele>
        <time>2016-05-13T10:27:13Z</time>
      </trkpt>
      <trkpt lat="32.977655" lon="35.355287">
        <ele>926.413</ele>
        <time>2016-05-13T10:28:18Z</time>
      </trkpt>
      <trkpt lat="32.977449" lon="35.354867">
        <ele>928.314</ele>
        <time>2016-05-13T10:29:12Z</time>
      </trkpt>
      <trkpt lat="32.977247" lon="35.354807">
        <ele>931.208</ele>
        <time>2016-05-13T10:30:10Z</time>
      </trkpt>
      <trkpt lat="32.975578" lon="35.356175">
        <ele>940.868</ele>
        <time>2016-05-13T10:35:09Z</time>
      </trkpt>
      <trkpt lat="32.975117" lon="35.356113">
        <ele>942.296</ele>
        <time>2016-05-13T10:36:30Z</time>
      </trkpt>
      <trkpt lat="32.974953" lon="35.356228">
        <ele>942.257</ele>
        <time>2016-05-13T10:37:22Z</time>
      </trkpt>
      <trkpt lat="32.974656" lon="35.356914">
        <ele>944.661</ele>
        <time>2016-05-13T10:38:41Z</time>
      </trkpt>
      <trkpt lat="32.974528" lon="35.357792">
        <ele>951.488</ele>
        <time>2016-05-13T10:39:59Z</time>
      </trkpt>
      <trkpt lat="32.973671" lon="35.358265">
        <ele>954.763</ele>
        <time>2016-05-13T10:41:51Z</time>
      </trkpt>
      <trkpt lat="32.973524" lon="35.358656">
        <ele>957.185</ele>
        <time>2016-05-13T10:42:31Z</time>
      </trkpt>
      <trkpt lat="32.972555" lon="35.358503">
        <ele>964.352</ele>
        <time>2016-05-13T10:44:07Z</time>
      </trkpt>
      <trkpt lat="32.972055" lon="35.358587">
        <ele>962.986</ele>
        <time>2016-05-13T10:44:54Z</time>
      </trkpt>
      <trkpt lat="32.971373" lon="35.359105">
        <ele>957.160</ele>
        <time>2016-05-13T10:46:11Z</time>
      </trkpt>
      <trkpt lat="32.970961" lon="35.359848">
        <ele>957.126</ele>
        <time>2016-05-13T10:47:20Z</time>
      </trkpt>
      <trkpt lat="32.970217" lon="35.359855">
        <ele>958.108</ele>
        <time>2016-05-13T10:48:36Z</time>
      </trkpt>
      <trkpt lat="32.970267" lon="35.361077">
        <ele>960.099</ele>
        <time>2016-05-13T10:50:44Z</time>
      </trkpt>
      <trkpt lat="32.970019" lon="35.362977">
        <ele>960.047</ele>
        <time>2016-05-13T10:53:16Z</time>
      </trkpt>
      <trkpt lat="32.970124" lon="35.363562">
        <ele>962.428</ele>
        <time>2016-05-13T10:54:02Z</time>
      </trkpt>
      <trkpt lat="32.970032" lon="35.364099">
        <ele>966.312</ele>
        <time>2016-05-13T10:54:48Z</time>
      </trkpt>
      <trkpt lat="32.969680" lon="35.363850">
        <ele>969.689</ele>
        <time>2016-05-13T10:55:45Z</time>
      </trkpt>
      <trkpt lat="32.969282" lon="35.363823">
        <ele>975.464</ele>
        <time>2016-05-13T10:56:23Z</time>
      </trkpt>
      <trkpt lat="32.967957" lon="35.364695">
        <ele>990.336</ele>
        <time>2016-05-13T10:58:59Z</time>
      </trkpt>
      <trkpt lat="32.967319" lon="35.364789">
        <ele>991.793</ele>
        <time>2016-05-13T11:00:00Z</time>
      </trkpt>
      <trkpt lat="32.967207" lon="35.364928">
        <ele>991.795</ele>
        <time>2016-05-13T11:00:15Z</time>
      </trkpt>
      <trkpt lat="32.967005" lon="35.365593">
        <ele>990.849</ele>
        <time>2016-05-13T11:01:17Z</time>
      </trkpt>
      <trkpt lat="32.967032" lon="35.366140">
        <ele>987.923</ele>
        <time>2016-05-13T11:02:12Z</time>
      </trkpt>
      <trkpt lat="32.966529" lon="35.367282">
        <ele>984.108</ele>
        <time>2016-05-13T11:03:45Z</time>
      </trkpt>
      <trkpt lat="32.966716" lon="35.367661">
        <ele>985.530</ele>
        <time>2016-05-13T11:04:17Z</time>
      </trkpt>
      <trkpt lat="32.967443" lon="35.367724">
        <ele>982.118</ele>
        <time>2016-05-13T11:05:58Z</time>
      </trkpt>
      <trkpt lat="32.967645" lon="35.368050">
        <ele>976.449</ele>
        <time>2016-05-13T11:06:33Z</time>
      </trkpt>
      <trkpt lat="32.967600" lon="35.368551">
        <ele>971.133</ele>
        <time>2016-05-13T11:07:08Z</time>
      </trkpt>
      <trkpt lat="32.967231" lon="35.369297">
        <ele>963.430</ele>
        <time>2016-05-13T11:08:12Z</time>
      </trkpt>
      <trkpt lat="32.966124" lon="35.370263">
        <ele>950.935</ele>
        <time>2016-05-13T11:10:20Z</time>
      </trkpt>
      <trkpt lat="32.965732" lon="35.371116">
        <ele>941.827</ele>
        <time>2016-05-13T11:11:53Z</time>
      </trkpt>
      <trkpt lat="32.965814" lon="35.372843">
        <ele>927.364</ele>
        <time>2016-05-13T11:14:08Z</time>
      </trkpt>
      <trkpt lat="32.965609" lon="35.373862">
        <ele>920.164</ele>
        <time>2016-05-13T11:15:25Z</time>
      </trkpt>
      <trkpt lat="32.965305" lon="35.374281">
        <ele>917.206</ele>
        <time>2016-05-13T11:16:03Z</time>
      </trkpt>
      <trkpt lat="32.964079" lon="35.374947">
        <ele>924.916</ele>
        <time>2016-05-13T11:18:10Z</time>
      </trkpt>
      <trkpt lat="32.963829" lon="35.375655">
        <ele>929.708</ele>
        <time>2016-05-13T11:19:09Z</time>
      </trkpt>
      <trkpt lat="32.963592" lon="35.375819">
        <ele>933.177</ele>
        <time>2016-05-13T11:19:35Z</time>
      </trkpt>
      <trkpt lat="32.963243" lon="35.375774">
        <ele>936.065</ele>
        <time>2016-05-13T11:20:08Z</time>
      </trkpt>
      <trkpt lat="32.962797" lon="35.376475">
        <ele>927.366</ele>
        <time>2016-05-13T11:21:15Z</time>
      </trkpt>
      <trkpt lat="32.962663" lon="35.377314">
        <ele>922.580</ele>
        <time>2016-05-13T11:22:14Z</time>
      </trkpt>
      <trkpt lat="32.962818" lon="35.377739">
        <ele>918.727</ele>
        <time>2016-05-13T11:22:49Z</time>
      </trkpt>
      <trkpt lat="32.962741" lon="35.378315">
        <ele>911.542</ele>
        <time>2016-05-13T11:23:32Z</time>
      </trkpt>
      <trkpt lat="32.963580" lon="35.379245">
        <ele>910.514</ele>
        <time>2016-05-13T11:25:20Z</time>
      </trkpt>
      <trkpt lat="32.963409" lon="35.380294">
        <ele>908.661</ele>
        <time>2016-05-13T11:28:08Z</time>
      </trkpt>
      <trkpt lat="32.963703" lon="35.381321">
        <ele>913.973</ele>
        <time>2016-05-13T11:29:31Z</time>
      </trkpt>
      <trkpt lat="32.963562" lon="35.382362">
        <ele>907.685</ele>
        <time>2016-05-13T11:31:00Z</time>
      </trkpt>
    </trkseg>
  </trk></gpx>